STARLINK-37353          
1 69157U 26111K   26164.72574554  .00374586  00000+0  18247-2 0  9993
2 69157  53.1569 168.9577 0003789 348.1205  11.9728 15.80817314  3719
STARLINK-37363          
1 69158U 26111L   26164.83335647 -.02531226  00000+0 -17485-1 0  9996
2 69158  53.1584 168.3987 0001001 110.5496 150.8539 15.77542362  5016
STARLINK-37343          
1 69159U 26111M   26164.83335647  .00082158  00000+0  14724-2 0  9992
2 69159  53.1595 169.3556 0000379  76.0689  73.2972 15.49258477  5018
STARLINK-37328          
1 69160U 26111N   26164.72352017  .00440945  00000+0  21155-2 0  9990
2 69160  53.1569 168.9417 0002883  21.7732 338.3413 15.80975520  3710
STARLINK-37311          
1 69161U 26111P   26164.73516542  .00387488  00000+0  21230-2 0  9993
2 69161  53.1570 169.0195 0002163  72.3858 287.7399 15.78189461  3718
STARLINK-36286          
1 69162U 26111Q   26163.65766931 -.00390918  00000+0 -23897-2 0  9998
2 69162  53.1571 174.3873 0000815 172.6788 187.4246 15.77702201  3540
STARLINK-37196          
1 69163U 26111R   26164.73702955  .00299868  00000+0  16649-2 0  9992
2 69163  53.1572 169.0314 0001936  80.2172 279.9068 15.78135609  3710
STARLINK-36288          
1 69164U 26111S   26164.83335647 -.02503533  00000+0 -21838-1 0  9990
2 69164  53.1594 168.5659 0001274  94.0373  84.7947 15.71580448  5013
STARLINK-37445          
1 69165U 26111T   26164.86809762 -.00260876  00000+0 -23626-2 0  9994
2 69165  53.1588 168.4257 0001064   3.5011 356.6013 15.68168114  3731
STARLINK-37491          
1 69166U 26111U   26164.73542494  .00248378  00000+0  13867-2 0  9994
2 69166  53.1570 169.0202 0001604  54.0313 306.0858 15.78158500  3719
STARLINK-37474          
1 69167U 26111V   26164.73287191  .00392486  00000+0  21493-2 0  9999
2 69167  53.1571 169.0031 0001202  47.8913 312.2211 15.78186445  3712
STARLINK-37469          
1 69168U 26111W   26164.83335647  .00077065  00000+0  13826-2 0  9995
2 69168  53.1587 169.5450 0000757 102.5703 312.6348 15.49255676  5011
STARLINK-37515          
1 69169U 26111X   26164.83335647 -.02562679  00000+0 -20147-1 0  9993
2 69169  53.1585 168.4914 0001058  89.2558 126.1856 15.74068684  5018
STARLINK-37437          
1 69170U 26111Y   26164.28362367  .00246780  00000+0  13804-2 0  9994
2 69170  53.1583 171.1764 0001518  97.1544 262.9650 15.78119735  3642
STARLINK-37392          
1 69171U 26111Z   26164.83335647 -.02564638  00000+0 -20792-1 0  9999
2 69171  53.1589 168.4225 0001099 100.5396 147.7658 15.73365751  5015
STARLINK-37472          
1 69172U 26111AA  26164.83335647 -.02546763  00000+0 -37354-1 0  9991
2 69172  53.1591 168.6088 0001368  81.9555  74.0554 15.58790722  5016
STARLINK-37461          
1 69173U 26111AB  26164.83335647  .00077411  00000+0  13888-2 0  9994
2 69173  53.1587 169.4527 0001131 100.1801   0.3164 15.49255469  5018
STARLINK-37333          
1 69174U 26111AC  26164.83335647 -.02006324  00000+0 -19558-1 0  9993
2 69174  53.1597 168.5609 0001484  93.7033  86.8982 15.68743022  5011
STARLINK-37385          
1 69175U 26111AD  26164.83335647  .00076528  00000+0  13729-2 0  9998
2 69175  53.1591 169.3655 0001024  94.3700  48.9426 15.49260053  5013
STARLINK-37414          
1 69176U 26111AE  26164.83335647 -.02522606  00000+0 -21116-1 0  9994
2 69176  53.1589 168.4290 0001115  96.9022 148.1006 15.72568529  5014
STARLINK-37380          
1 69182U 26114A   26164.86289242  .00208244  00000+0  11698-2 0  9996
2 69182  53.1581 219.1005 0001197  86.6897 273.4261 15.78138003  4242
STARLINK-37089          
1 69183U 26114B   26164.60863229  .00105204  00000+0  60182-3 0  9997
2 69183  53.1585 220.3575 0001362  78.6520 281.4654 15.78073048  4209
STARLINK-37428          
1 69184U 26114C   26164.86055193  .00187701  00000+0  10578-2 0  9994
2 69184  53.1583 219.0855 0001285  91.2619 268.8550 15.78129091  4246
STARLINK-37237          
1 69185U 26114D   26164.66779288  .00105872  00000+0  60424-3 0  9996
2 69185  53.1589 220.0138 0001247  88.1251 271.9914 15.78122229  4216
STARLINK-37365          
1 69186U 26114E   26164.66811786  .00243393  00000+0  13611-2 0  9993
2 69186  53.1585 220.0156 0001203  94.7233 265.3926 15.78136488  4210
STARLINK-37209          
1 69187U 26114F   26164.85734159  .00227420  00000+0  12741-2 0  9999
2 69187  53.1584 219.0626 0001711  54.4595 305.6585 15.78142201  4240
STARLINK-37359          
1 69188U 26114G   26164.85689946  .00200600  00000+0  11282-2 0  9993
2 69188  53.1584 219.0595 0001406  93.6304 266.4878 15.78134681  4242
