OBJECT_NAME,OBJECT_ID,EPOCH,MEAN_MOTION,ECCENTRICITY,INCLINATION,RA_OF_ASC_NODE,ARG_OF_PERICENTER,MEAN_ANOMALY,EPHEMERIS_TYPE,CLASSIFICATION_TYPE,NORAD_CAT_ID,ELEMENT_SET_NO,REV_AT_EPOCH,BSTAR,MEAN_MOTION_DOT,MEAN_MOTION_DDOT
STARLINK-37353,2026-111K,2026-06-13T17:25:04.414656,15.80817314,.0003789,53.1569,168.9577,348.1205,11.9728,0,U,69157,999,371,.18247E-2,.374586E-2,0
STARLINK-37363,2026-111L,2026-06-13T20:00:01.999008,15.77542362,.0001001,53.1584,168.3987,110.5496,150.8539,0,U,69158,999,501,-.17485E-1,-.2531226E-1,0
STARLINK-37343,2026-111M,2026-06-13T20:00:01.999008,15.49258477,.0000379,53.1595,169.3556,76.0689,73.2972,0,U,69159,999,501,.14724E-2,.82158E-3,0
STARLINK-37328,2026-111N,2026-06-13T17:21:52.142688,15.80975520,.0002883,53.1569,168.9417,21.7732,338.3413,0,U,69160,999,371,.21155E-2,.440945E-2,0
STARLINK-37311,2026-111P,2026-06-13T17:38:38.292288,15.78189461,.0002163,53.1570,169.0195,72.3858,287.7399,0,U,69161,999,371,.2123E-2,.387488E-2,0
STARLINK-36286,2026-111Q,2026-06-12T15:47:02.628384,15.77702201,.00008158,53.1571,174.3873,172.6788,187.4246,0,U,69162,999,354,-.23896801E-2,-.390918E-2,0
STARLINK-37196,2026-111R,2026-06-13T17:41:19.353120,15.78135609,.0001936,53.1572,169.0314,80.2172,279.9068,0,U,69163,999,371,.16649E-2,.299868E-2,0
STARLINK-36288,2026-111S,2026-06-13T20:00:01.999008,15.71580448,.0001274,53.1594,168.5659,94.0373,84.7947,0,U,69164,999,501,-.21838E-1,-.2503533E-1,0
STARLINK-37445,2026-111T,2026-06-13T20:50:03.634368,15.68168114,.0001064,53.1588,168.4257,3.5011,356.6013,0,U,69165,999,373,-.23626E-2,-.260876E-2,0
STARLINK-37491,2026-111U,2026-06-13T17:39:00.714816,15.78158500,.0001604,53.1570,169.0202,54.0313,306.0858,0,U,69166,999,371,.13867E-2,.248378E-2,0
STARLINK-37474,2026-111V,2026-06-13T17:35:20.133024,15.78186445,.0001202,53.1571,169.0031,47.8913,312.2211,0,U,69167,999,371,.21493E-2,.392486E-2,0
STARLINK-37469,2026-111W,2026-06-13T20:00:01.999008,15.49255676,.0000757,53.1587,169.5450,102.5703,312.6348,0,U,69168,999,501,.13826E-2,.77065E-3,0
STARLINK-37515,2026-111X,2026-06-13T20:00:01.999008,15.74068684,.0001058,53.1585,168.4914,89.2558,126.1856,0,U,69169,999,501,-.20147E-1,-.2562679E-1,0
STARLINK-37437,2026-111Y,2026-06-13T06:48:25.085088,15.78119735,.0001518,53.1583,171.1764,97.1544,262.9650,0,U,69170,999,364,.13804E-2,.24678E-2,0
STARLINK-37392,2026-111Z,2026-06-13T20:00:01.999008,15.73365751,.0001099,53.1589,168.4225,100.5396,147.7658,0,U,69171,999,501,-.20792E-1,-.2564638E-1,0
STARLINK-37472,2026-111AA,2026-06-13T20:00:01.999008,15.58790722,.0001368,53.1591,168.6088,81.9555,74.0554,0,U,69172,999,501,-.37354E-1,-.2546763E-1,0
STARLINK-37461,2026-111AB,2026-06-13T20:00:01.999008,15.49255469,.0001131,53.1587,169.4527,100.1801,0.3164,0,U,69173,999,501,.13888E-2,.77411E-3,0
STARLINK-37333,2026-111AC,2026-06-13T20:00:01.999008,15.68743022,.0001484,53.1597,168.5609,93.7033,86.8982,0,U,69174,999,501,-.19558E-1,-.2006324E-1,0
STARLINK-37385,2026-111AD,2026-06-13T20:00:01.999008,15.49260053,.0001024,53.1591,169.3655,94.3700,48.9426,0,U,69175,999,501,.13729E-2,.76528E-3,0
STARLINK-37414,2026-111AE,2026-06-13T20:00:01.999008,15.72568529,.0001115,53.1589,168.4290,96.9022,148.1006,0,U,69176,999,501,-.21116E-1,-.2522606E-1,0
STARLINK-37380,2026-114A,2026-06-13T20:42:33.905088,15.78138003,.0001197,53.1581,219.1005,86.6897,273.4261,0,U,69182,999,424,.11698E-2,.208244E-2,0
STARLINK-37089,2026-114B,2026-06-13T14:36:25.829856,15.78073048,.0001362,53.1585,220.3575,78.6520,281.4654,0,U,69183,999,420,.60182E-3,.105204E-2,0
STARLINK-37428,2026-114C,2026-06-13T20:39:11.686752,15.78129091,.0001285,53.1583,219.0855,91.2619,268.8550,0,U,69184,999,424,.10578E-2,.187701E-2,0
STARLINK-37237,2026-114D,2026-06-13T16:01:37.304832,15.78122229,.0001247,53.1589,220.0138,88.1251,271.9914,0,U,69185,999,421,.60424E-3,.105872E-2,0
STARLINK-37365,2026-114E,2026-06-13T16:02:05.383104,15.78136488,.0001203,53.1585,220.0156,94.7233,265.3926,0,U,69186,999,421,.13611E-2,.243393E-2,0
STARLINK-37209,2026-114F,2026-06-13T20:34:34.313376,15.78142201,.0001711,53.1584,219.0626,54.4595,305.6585,0,U,69187,999,424,.12741E-2,.22742E-2,0
STARLINK-37359,2026-114G,2026-06-13T20:33:56.113344,15.78134681,.0001406,53.1584,219.0595,93.6304,266.4878,0,U,69188,999,424,.11282E-2,.2006E-2,0
